[{"OBJECT_NAME":"YAOGAN-31 01A","OBJECT_ID":"2018-034A","EPOCH":"2026-03-09T23:44:11.767776","MEAN_MOTION":13.45451916,"ECCENTRICITY":0.02667971,"INCLINATION":63.3985,"RA_OF_ASC_NODE":346.5133,"ARG_OF_PERICENTER":7.1103,"MEAN_ANOMALY":353.359,"EPHEMERIS_TYPE":0,"CLASSIFICATION_TYPE":"U","NORAD_CAT_ID":43275,"ELEMENT_SET_NO":999,"REV_AT_EPOCH":38875,"BSTAR":-7.1923927e-5,"MEAN_MOTION_DOT":-1.43e-6,"MEAN_MOTION_DDOT":0},{"OBJECT_NAME":"ATLAS 2AS CENTAUR R\/B","OBJECT_ID":"2003-054B","EPOCH":"2026-03-09T23:16:11.266176","MEAN_MOTION":13.41063126,"ECCENTRICITY":0.00733544,"INCLINATION":63.679,"RA_OF_ASC_NODE":285.6194,"ARG_OF_PERICENTER":117.5832,"MEAN_ANOMALY":243.267,"EPHEMERIS_TYPE":0,"CLASSIFICATION_TYPE":"U","NORAD_CAT_ID":28096,"ELEMENT_SET_NO":999,"REV_AT_EPOCH":8911,"BSTAR":0.00010671478,"MEAN_MOTION_DOT":-2.7e-7,"MEAN_MOTION_DDOT":0}]
